{"type": "FeatureCollection", "features": [ {"type": "Feature", "properties": {"norad_id": 66911, "name": "1998-067XX", "group": "stations", "lat": 14.919070440375991, "lon": -86.71682161007504, "alt_km": 406.79425542192985, "timestamp": "2025-12-20T03:42:46.150596+00:00", "meta": {"OBJECT_NAME": "1998-067XX", "OBJECT_ID": "1998-067XX", "EPOCH": "2025-12-19T19:18:04.959648", "MEAN_MOTION": 15.52964022, "ECCENTRICITY": 0.0003934, "INCLINATION": 51.6304, "RA_OF_ASC_NODE": 107.215, "ARG_OF_PERICENTER": 254.2011, "MEAN_ANOMALY": 105.8545, "EPHEMERIS_TYPE": 0, "CLASSIFICATION_TYPE": "U", "NORAD_CAT_ID": 66911, "ELEMENT_SET_NO": 999, "REV_AT_EPOCH": 270, "BSTAR": 0.00082359, "MEAN_MOTION_DOT": 0.00052143, "MEAN_MOTION_DDOT": 0}, "tle": {"line1": "1 66911U 98067XX  25353.80422407  .00052143  00000+0  82359-3 0  9992", "line2": "2 66911  51.6304 107.2150 0003934 254.2011 105.8545 15.52964022  2707"}}, "geometry": {"type": "Point", "coordinates": [-86.71682161007504, 14.919070440375991]}}, {"type": "Feature", "properties": {"norad_id": 66912, "name": "1998-067XY", "group": "stations", "lat": 46.89258625371343, "lon": -132.25486898629785, "alt_km": 407.3558020742603, "timestamp": "2025-12-20T03:42:46.150621+00:00", "meta": {"OBJECT_NAME": "1998-067XY", "OBJECT_ID": "1998-067XY", "EPOCH": "2025-12-19T14:52:14.043072", "MEAN_MOTION": 15.51780846, "ECCENTRICITY": 0.0004012, "INCLINATION": 51.6307, "RA_OF_ASC_NODE": 108.231, "ARG_OF_PERICENTER": 260.881, "MEAN_ANOMALY": 99.1725, "EPHEMERIS_TYPE": 0, "CLASSIFICATION_TYPE": "U", "NORAD_CAT_ID": 66912, "ELEMENT_SET_NO": 999, "REV_AT_EPOCH": 267, "BSTAR": 0.00063264, "MEAN_MOTION_DOT": 0.00038197, "MEAN_MOTION_DDOT": 0}, "tle": {"line1": "1 66912U 98067XY  25353.61960698  .00038197  00000+0  63264-3 0  9998", "line2": "2 66912  51.6307 108.2310 0004012 260.8810  99.1725 15.51780846  2678"}}, "geometry": {"type": "Point", "coordinates": [-132.25486898629785, 46.89258625371343]}}]}